H1 CPF  1  DLR 2021 08 10 10  7222 technosat            
H2  1704205 6203    42829 2021 08 10 00 00 00 2021 08 17 00 00 00    60 1 1  0 0 0
H9
10 0 59439  64800.000000  0      -4468912.391      -4275238.055      -3211251.403
10 0 59439  64860.000000  0      -4673671.998      -4340695.466      -2806076.590
10 0 59439  64920.000000  0      -4859188.578      -4386122.555      -2388970.974
10 0 59439  64980.000000  0      -5024496.155      -4411493.393      -1961704.268
10 0 59439  65040.000000  0      -5168714.699      -4416875.553      -1526091.090
10 0 59439  65100.000000  0      -5291054.909      -4402429.222      -1083983.064
10 0 59439  65160.000000  0      -5390822.602      -4368405.843       -637260.735
10 0 59439  65220.000000  0      -5467422.672      -4315146.315       -187825.303
10 0 59439  65280.000000  0      -5520362.554      -4243078.743        262409.791
10 0 59439  65340.000000  0      -5549255.175      -4152715.747        711527.373
10 0 59439  65400.000000  0      -5553821.373      -4044651.309       1157615.084
10 0 59439  65460.000000  0      -5533891.737      -3919557.201       1598773.864
10 0 59439  65520.000000  0      -5489407.925      -3778179.039       2033126.350
10 0 59439  65580.000000  0      -5420423.415      -3621331.985       2458825.140
10 0 59439  65640.000000  0      -5327103.697      -3449896.146       2874060.882
10 0 59439  65700.000000  0      -5209725.926      -3264811.699       3277070.166
10 0 59439  65760.000000  0      -5068678.034      -3067073.736       3666143.192
10 0 59439  65820.000000  0      -4904457.271      -2857726.859       4039631.175
10 0 59439  65880.000000  0      -4717668.167      -2637859.567       4395953.376
10 0 59439  65940.000000  0      -4509020.017      -2408598.515       4733603.713
10 0 59439  66000.000000  0      -4279323.920      -2171102.692       5051157.009
10 0 59439  66060.000000  0      -4029489.360      -1926557.522       5347274.855
10 0 59439  66120.000000  0      -3760520.370      -1676168.933       5620711.096
10 0 59439  66180.000000  0      -3473511.263      -1421157.376       5870316.939
10 0 59439  66240.000000  0      -3169641.904      -1162751.815       6095045.602
10 0 59439  66300.000000  0      -2850172.600       -902183.767       6293956.467
10 0 59439  66360.000000  0      -2516438.629       -640681.384       6466218.745
10 0 59439  66420.000000  0      -2169844.447       -379463.656       6611114.597
10 0 59439  66480.000000  0      -1811857.636       -119734.827       6728041.786
10 0 59439  66540.000000  0      -1444002.647        137321.040       6816515.902
10 0 59439  66600.000000  0      -1067854.298        390545.387       6876172.160
10 0 59439  66660.000000  0       -685031.034        638810.316       6906766.721
10 0 59439  66720.000000  0       -297187.992        881023.544       6908177.517
10 0 59439  66780.000000  0         93990.088       1116133.134       6880404.628
10 0 59439  66840.000000  0        486796.112       1343132.010       6823570.212
10 0 59439  66900.000000  0        879508.040       1561062.244       6737917.923
10 0 59439  66960.000000  0       1270396.338       1769019.023       6623811.820
10 0 59439  67020.000000  0       1657731.501       1966154.344       6481734.886
10 0 59439  67080.000000  0       2039791.599       2151680.411       6312287.076
10 0 59439  67140.000000  0       2414869.858       2324872.762       6116182.971
10 0 59439  67200.000000  0       2781282.274       2485073.114       5894248.969
10 0 59439  67260.000000  0       3137375.204       2631691.855       5647419.974
10 0 59439  67320.000000  0       3481532.851       2764210.222       5376735.625
10 0 59439  67380.000000  0       3812184.598       2882182.145       5083336.076
10 0 59439  67440.000000  0       4127812.176       2985235.744       4768457.408
10 0 59439  67500.000000  0       4426956.702       3073074.460       4433426.644
10 0 59439  67560.000000  0       4708225.555       3145477.814       4079656.465
10 0 59439  67620.000000  0       4970299.242       3202301.961       3708639.417
10 0 59439  67680.000000  0       5211937.775       3243479.644       3321941.430
10 0 59439  67740.000000  0       5431986.508       3269019.730       2921195.329
10 0 59439  67800.000000  0       5629381.828       3279006.564       2508094.066
10 0 59439  67860.000000  0       5803156.469       3273598.913       2084383.554
10 0 59439  67920.000000  0       5952444.411       3253028.531       1651855.234
10 0 59439  67980.000000  0       6076485.330       3217598.344       1212338.411
10 0 59439  68040.000000  0       6174628.549       3167680.286        767692.358
10 0 59439  68100.000000  0       6246336.438       3103712.763        319798.287
10 0 59439  68160.000000  0       6291187.306       3026197.818       -129448.763
10 0 59439  68220.000000  0       6308877.760       2935697.929       -578148.131
10 0 59439  68280.000000  0       6299224.438       2832832.502      -1024401.736
10 0 59439  68340.000000  0       6262165.185       2718274.198      -1466322.171
10 0 59439  68400.000000  0       6197759.770       2592745.076      -1902040.818
10 0 59439  68460.000000  0       6106189.978       2457012.434      -2329715.951
10 0 59439  68520.000000  0       5987759.055       2311884.395      -2747540.661
10 0 59439  68580.000000  0       5842890.615       2158205.369      -3153750.531
10 0 59439  68640.000000  0       5672127.005       1996851.375      -3546631.154
10 0 59439  68700.000000  0       5476127.103       1828725.219      -3924525.408
10 0 59439  68760.000000  0       5255663.535       1654751.578      -4285840.468
10 0 59439  68820.000000  0       5011619.305       1475872.050      -4629054.410
10 0 59439  68880.000000  0       4744984.024       1293040.209      -4952722.419
10 0 59439  68940.000000  0       4456849.720       1107216.685      -5255482.714
10 0 59439  69000.000000  0       4148406.167        919364.230      -5536062.100
10 0 59439  69060.000000  0       3820935.819        730442.855      -5793281.117
10 0 59439  69120.000000  0       3475808.320        541405.049      -6026058.825
10 0 59439  69180.000000  0       3114474.588        353191.099      -6233417.094
10 0 59439  69240.000000  0       2738460.662        166724.522      -6414484.448
10 0 59439  69300.000000  0       2349361.228        -17092.353      -6568499.506
10 0 59439  69360.000000  0       1948832.892       -197382.640      -6694813.953
10 0 59439  69420.000000  0       1538587.244       -373298.988      -6792895.159
10 0 59439  69480.000000  0       1120383.540       -544027.522      -6862328.380
10 0 59439  69540.000000  0        696021.168       -708791.520      -6902818.348
10 0 59439  69600.000000  0        267332.036       -866854.870      -6914190.397
10 0 59439  69660.000000  0       -163827.162      -1017525.307      -6896391.210
10 0 59439  69720.000000  0       -595582.812      -1160157.399      -6849489.146
10 0 59439  69780.000000  0      -1026052.437      -1294155.314      -6773674.139
10 0 59439  69840.000000  0      -1453352.810      -1418975.305      -6669257.049
10 0 59439  69900.000000  0      -1875608.120      -1534127.955      -6536668.585
10 0 59439  69960.000000  0      -2290958.131      -1639180.098      -6376457.656
10 0 59439  70020.000000  0      -2697566.241      -1733756.449      -6189289.356
10 0 59439  70080.000000  0      -3093627.559      -1817540.995      -5975942.588
10 0 59439  70140.000000  0      -3477377.015      -1890278.103      -5737307.194
10 0 59439  70200.000000  0      -3847097.390      -1951773.311      -5474380.577
10 0 59439  70260.000000  0      -4201127.200      -2001893.798      -5188263.800
10 0 59439  70320.000000  0      -4537868.353      -2040568.535      -4880157.231
10 0 59439  70380.000000  0      -4855793.594      -2067788.121      -4551355.780
10 0 59439  70440.000000  0      -5153453.734      -2083604.321      -4203243.703
10 0 59439  70500.000000  0      -5429484.608      -2088129.280      -3837288.962
10 0 59439  70560.000000  0      -5682613.701      -2081534.424      -3455037.139
10 0 59439  70620.000000  0      -5911666.380      -2064049.023      -3058104.950
10 0 59439  70680.000000  0      -6115571.693      -2035958.455      -2648173.411
10 0 59439  70740.000000  0      -6293367.735      -1997602.173      -2226980.689
10 0 59439  70800.000000  0      -6444206.553      -1949371.372      -1796314.627
10 0 59439  70860.000000  0      -6567358.500      -1891706.380      -1358004.971
10 0 59439  70920.000000  0      -6662216.010      -1825093.795       -913915.386
10 0 59439  70980.000000  0      -6728296.838      -1750063.356       -465935.282
10 0 59439  71040.000000  0      -6765246.675      -1667184.585        -15971.478
10 0 59439  71100.000000  0      -6772841.126      -1577063.204        434060.245
10 0 59439  71160.000000  0      -6750987.019      -1480337.376        882243.643
10 0 59439  71220.000000  0      -6699723.068      -1377673.789       1326670.497
10 0 59439  71280.000000  0      -6619219.879      -1269763.609       1765449.077
10 0 59439  71340.000000  0      -6509779.296      -1157318.325       2196712.494
10 0 59439  71400.000000  0      -6371833.089      -1041065.509       2618626.918
10 0 59439  71460.000000  0      -6205941.044       -921744.512       3029399.604
10 0 59439  71520.000000  0      -6012788.420       -800102.106       3427286.746
10 0 59439  71580.000000  0      -5793182.740       -676888.135       3810601.071
10 0 59439  71640.000000  0      -5548049.951       -552851.223       4177719.061
10 0 59439  71700.000000  0      -5278430.107       -428734.547       4527087.777
10 0 59439  71760.000000  0      -4985472.587       -305271.667       4857231.359
10 0 59439  71820.000000  0      -4670430.840       -183182.447       5166757.132
10 0 59439  71880.000000  0      -4334656.733        -63169.097       5454361.364
10 0 59439  71940.000000  0      -3979594.375         54087.636       5718834.639
99
